{
  "norad_id": 41550,
  "name": "GSAT0210 (GALILEO 13)",
  "history": [
    {
      "epoch": "2026-04-30T12:58:09.496416Z",
      "apogee_km": 23228.847831455863,
      "perigee_km": 23215.495132299693,
      "latitude_deg": 0.00010010245655453266,
      "longitude_deg": 169.96484527600907,
      "height_km": 23228.83856838668,
      "semi_major_axis_km": 29600.30848187778,
      "eccentricity": 0.00022555,
      "inclination_deg": 55.1111,
      "raan_deg": 223.0031,
      "arg_perigee_deg": 163.2996,
      "mean_anomaly_deg": 196.7153,
      "mean_motion_rev_day": 1.704741
    },
    {
      "epoch": "2026-05-04T15:30:58.770720Z",
      "apogee_km": 23229.127483819968,
      "perigee_km": 23215.179826863172,
      "latitude_deg": -1.5451916842433857e-05,
      "longitude_deg": 127.60498193305706,
      "height_km": 23227.891988580923,
      "semi_major_axis_km": 29600.29065534157,
      "eccentricity": 0.0002356,
      "inclination_deg": 55.1082,
      "raan_deg": 222.8901,
      "arg_perigee_deg": 218.3947,
      "mean_anomaly_deg": 141.6248,
      "mean_motion_rev_day": 1.70474254
    },
    {
      "epoch": "2026-05-04T15:30:58.771584Z",
      "apogee_km": 23229.1286678316,
      "perigee_km": 23215.178642851548,
      "latitude_deg": -1.3115437519740996e-05,
      "longitude_deg": 127.60497994842112,
      "height_km": 23227.89291736209,
      "semi_major_axis_km": 29600.29065534157,
      "eccentricity": 0.00023564,
      "inclination_deg": 55.1082,
      "raan_deg": 222.8901,
      "arg_perigee_deg": 218.3947,
      "mean_anomaly_deg": 141.6248,
      "mean_motion_rev_day": 1.70474254
    },
    {
      "epoch": "2026-05-07T13:54:22.886784Z",
      "apogee_km": 23228.632580056135,
      "perigee_km": 23215.673573060623,
      "latitude_deg": 6.86777102207924e-05,
      "longitude_deg": 148.7862177560381,
      "height_km": 23228.167648113184,
      "semi_major_axis_km": 29600.29007655838,
      "eccentricity": 0.0002189,
      "inclination_deg": 55.1073,
      "raan_deg": 222.8097,
      "arg_perigee_deg": 207.5971,
      "mean_anomaly_deg": 152.4325,
      "mean_motion_rev_day": 1.70474259
    },
    {
      "epoch": "2026-05-07T13:54:22.887648Z",
      "apogee_km": 23228.631692047442,
      "perigee_km": 23215.674461069324,
      "latitude_deg": 6.737029504606739e-05,
      "longitude_deg": 148.78621323654576,
      "height_km": 23228.166860442525,
      "semi_major_axis_km": 29600.29007655838,
      "eccentricity": 0.00021887,
      "inclination_deg": 55.1073,
      "raan_deg": 222.8097,
      "arg_perigee_deg": 207.5971,
      "mean_anomaly_deg": 152.4325,
      "mean_motion_rev_day": 1.70474259
    },
    {
      "epoch": "2026-05-09T08:08:24.662976Z",
      "apogee_km": 23228.175033873882,
      "perigee_km": 23216.14547307007,
      "latitude_deg": -9.029973725344744e-06,
      "longitude_deg": -126.50412964834115,
      "height_km": 23228.43487592067,
      "semi_major_axis_km": 29600.297253471974,
      "eccentricity": 0.0002032,
      "inclination_deg": 55.1067,
      "raan_deg": 222.7614,
      "arg_perigee_deg": 176.4636,
      "mean_anomaly_deg": 183.5762,
      "mean_motion_rev_day": 1.70474197
    }
  ]
}